[{"OBJECT_NAME":"STARLINK-5952","OBJECT_ID":"2023-083AZ","EPOCH":"2026-03-09T22:00:01.999584","MEAN_MOTION":15.07901533,"ECCENTRICITY":0.00011359,"INCLINATION":43.0007,"RA_OF_ASC_NODE":67.354,"ARG_OF_PERICENTER":303.977,"MEAN_ANOMALY":166.0344,"EPHEMERIS_TYPE":0,"CLASSIFICATION_TYPE":"U","NORAD_CAT_ID":56923,"ELEMENT_SET_NO":999,"REV_AT_EPOCH":578,"BSTAR":0.0043978812,"MEAN_MOTION_DOT":0.0006909,"MEAN_MOTION_DDOT":0},{"OBJECT_NAME":"RAPIDEYE 2","OBJECT_ID":"2008-040A","EPOCH":"2026-03-09T16:28:01.823808","MEAN_MOTION":15.04945954,"ECCENTRICITY":0.00177122,"INCLINATION":97.4373,"RA_OF_ASC_NODE":102.2221,"ARG_OF_PERICENTER":194.2548,"MEAN_ANOMALY":165.8182,"EPHEMERIS_TYPE":0,"CLASSIFICATION_TYPE":"U","NORAD_CAT_ID":33312,"ELEMENT_SET_NO":999,"REV_AT_EPOCH":95100,"BSTAR":0.0001818221,"MEAN_MOTION_DOT":2.525e-5,"MEAN_MOTION_DDOT":0}]
